NORAD_CAT_ID,OBJECT_NAME,OBJECT_TYPE,EPOCH,MEAN_MOTION,ECCENTRICITY,INCLINATION,RA_OF_ASC_NODE,ARG_OF_PERICENTER,MEAN_ANOMALY,BSTAR,MEAN_MOTION_DOT,MEAN_MOTION_DDOT,TLE_LINE0,TLE_LINE1,TLE_LINE2,SEMIMAJOR_AXIS,PERIOD,APOGEE,PERIGEE,DECAYED
55759.0,STARLINK-5081,PAYLOAD,2023-10-29 04:14:17,14.98326635,0.0002781,70.0005,239.3332,269.632,90.452,-9.0289e-05,-1.17e-05,0.0,0 STARLINK-5081,1 55759U 23028U   23302.17659218 -.00001170  00000-0 -90289-4 0  9998,2 55759  70.0005 239.3332 0002781 269.6320  90.4520 14.98326635 37339,6950.203,96.107,574.001,570.135,0.0
55759.0,STARLINK-5081,PAYLOAD,2023-10-29 05:50:25,14.98333296,0.000288,70.0003,239.1647,270.3126,89.7703,-5.2407e-05,-7.18e-06,0.0,0 STARLINK-5081,1 55759U 23028U   23302.24334691 -.00000718  00000-0 -52407-4 0  9998,2 55759  70.0003 239.1647 0002880 270.3126  89.7703 14.98333296 37343,6950.183,96.107,574.049,570.046,0.0
55759.0,STARLINK-5081,PAYLOAD,2023-10-29 13:51:06,14.98298424,0.0002629,70.0025,238.3235,274.649,85.4369,0.00025099,2.901e-05,0.0,0 STARLINK-5081,1 55759U 23028U   23302.57716331  .00002901  00000-0  25099-3 0  9999,2 55759  70.0025 238.3235 0002629 274.6490  85.4369 14.98298424 37392,6950.291,96.109,573.983,570.328,0.0
55759.0,STARLINK-5081,PAYLOAD,2023-10-29 21:51:46,14.98329057,0.0002904,70.0005,237.4811,267.9768,92.1058,-0.00030783,-3.764e-05,0.0,0 STARLINK-5081,1 55759U 23028U   23302.91095917 -.00003764  00000-0 -30783-3 0  9993,2 55759  70.0005 237.4811 0002904 267.9768  92.1058 14.98329057 37442,6950.196,96.107,574.079,570.042,0.0
55759.0,STARLINK-5081,PAYLOAD,2023-10-30 04:16:18,14.98335913,0.0002586,70.0011,236.8081,276.0223,84.0641,-0.00021286,-2.632e-05,0.0,0 STARLINK-5081,1 55759U 23028U   23303.17799367 -.00002632  00000-0 -21286-3 0  9993,2 55759  70.0011 236.8081 0002586 276.0223  84.0641 14.98335913 37484,6950.175,96.107,573.837,570.242,0.0
55759.0,STARLINK-5081,PAYLOAD,2023-10-30 20:17:39,14.98315284,0.0002588,70.0015,235.126,272.5399,87.5464,5.7405e-05,5.92e-06,0.0,0 STARLINK-5081,1 55759U 23028U   23303.84560044  .00000592  00000-0  57405-4 0  9999,2 55759  70.0015 235.1260 0002588 272.5399  87.5464 14.98315284 37587,6950.238,96.108,573.902,570.305,0.0
55759.0,STARLINK-5081,PAYLOAD,2023-10-30 21:53:47,14.9831586,0.0002583,70.0015,234.9577,272.6765,87.4099,5.9799e-05,6.2e-06,0.0,0 STARLINK-5081,1 55759U 23028U   23303.91236070  .00000620  00000-0  59799-4 0  9996,2 55759  70.0015 234.9577 0002583 272.6765  87.4099 14.98315860 37592,6950.237,96.108,573.897,570.306,0.0
55759.0,STARLINK-5081,PAYLOAD,2023-10-31 12:18:59,14.98374167,0.0002684,70.0029,233.4428,271.8325,88.2527,-0.00085466,-0.00010287,0.0,0 STARLINK-5081,1 55759U 23028U   23304.51318643 -.00010287  00000-0 -85466-3 0  9991,2 55759  70.0029 233.4428 0002684 271.8325  88.2527 14.98374167 37681,6950.056,96.104,573.787,570.056,0.0
55759.0,STARLINK-5081,PAYLOAD,2023-10-31 20:19:40,14.98316865,0.0002983,70.0035,232.6018,265.9106,94.1712,0.00017787,2.029e-05,0.0,0 STARLINK-5081,1 55759U 23028U   23304.84700154  .00002029  00000-0  17787-3 0  9993,2 55759  70.0035 232.6018 0002983 265.9106  94.1712 14.98316865 37736,6950.234,96.108,574.172,570.025,0.0
55759.0,STARLINK-5081,PAYLOAD,2023-10-31 21:55:49,14.9832,0.0002769,70.0019,232.4328,268.6426,91.4416,0.00011878,1.324e-05,0.0,0 STARLINK-5081,1 55759U 23028U   23304.91376234  .00001324  00000-0  11878-3 0  9991,2 55759  70.0019 232.4328 0002769 268.6426  91.4416 14.98320000 37745,6950.224,96.108,574.013,570.164,0.0
55759.0,STARLINK-5081,PAYLOAD,2023-11-01 04:20:20,14.98329636,0.0002684,70.0015,231.7585,259.1873,100.8984,0.00020193,2.317e-05,0.0,0 STARLINK-5081,1 55759U 23028U   23305.18079481  .00002317  00000-0  20193-3 0  9998,2 55759  70.0015 231.7585 0002684 259.1873 100.8984 14.98329636 37788,6950.194,96.107,573.924,570.194,0.0
55759.0,STARLINK-5081,PAYLOAD,2023-11-01 12:21:01,14.98345401,0.0002183,70.0024,230.9155,279.3877,80.7035,-0.00026723,-3.281e-05,0.0,0 STARLINK-5081,1 55759U 23028U   23305.51459797 -.00003281  00000-0 -26723-3 0  9995,2 55759  70.0024 230.9155 0002183 279.3877  80.7035 14.98345401 37831,6950.145,96.106,573.527,570.493,0.0
55759.0,STARLINK-5081,PAYLOAD,2023-11-01 20:21:41,14.98327385,0.0003061,70.0009,230.0755,271.1716,88.9092,4.0705e-05,3.93e-06,0.0,0 STARLINK-5081,1 55759U 23028U   23305.84840060  .00000393  00000-0  40705-4 0  9994,2 55759  70.0009 230.0755 0003061 271.1716  88.9092 14.98327385 37888,6950.201,96.107,574.193,569.939,0.0
55759.0,STARLINK-5081,PAYLOAD,2023-11-01 21:57:49,14.98330569,0.0003386,70.0011,229.9067,274.306,85.7712,7.738e-06,-1e-08,0.0,0 STARLINK-5081,1 55759U 23028U   23305.91515971 -.00000001  00000-0  77380-5 0  9999,2 55759  70.0011 229.9067 0003386 274.3060  85.7712 14.98330569 37894,6950.191,96.107,574.409,569.703,0.0
55759.0,STARLINK-5081,PAYLOAD,2023-11-02 04:22:21,14.98340495,0.0003027,70.0008,229.2341,268.9116,91.1696,0.00017407,1.985e-05,0.0,0 STARLINK-5081,1 55759U 23028U   23306.18218815  .00001985  00000-0  17407-3 0  9999,2 55759  70.0008 229.2341 0003027 268.9116  91.1696 14.98340495 37937,6950.16,96.106,574.129,569.922,0.0
55759.0,STARLINK-5081,PAYLOAD,2023-11-02 12:23:02,14.98335496,0.0002502,70.0017,228.3917,277.3507,82.7367,-2.8018e-05,-4.27e-06,0.0,0 STARLINK-5081,1 55759U 23028U   23306.51599654 -.00000427  00000-0 -28018-4 0  9992,2 55759  70.0017 228.3917 0002502 277.3507  82.7367 14.98335496 37982,6950.176,96.107,573.78,570.302,0.0
55759.0,STARLINK-5081,PAYLOAD,2023-11-02 20:23:43,14.98322556,0.0002693,70.001,227.5514,269.2002,90.8848,-6.8691e-05,-9.12e-06,0.0,0 STARLINK-5081,1 55759U 23028U   23306.84980512 -.00000912  00000-0 -68691-4 0  9995,2 55759  70.0010 227.5514 0002693 269.2002  90.8848 14.98322556 38034,6950.216,96.107,573.953,570.209,0.0
55759.0,STARLINK-5081,PAYLOAD,2023-11-02 21:59:51,14.98323199,0.0002671,70.0012,227.3834,268.5677,91.5176,-6.5645e-05,-8.76e-06,0.0,0 STARLINK-5081,1 55759U 23028U   23306.91656487 -.00000876  00000-0 -65645-4 0  9999,2 55759  70.0012 227.3834 0002671 268.5677  91.5176 14.98323199 38042,6950.214,96.107,573.935,570.223,0.0
55759.0,STARLINK-5081,PAYLOAD,2023-11-03 04:24:22,14.98331125,0.0002575,70.0012,226.7091,265.0015,95.085,6.5248e-06,-1.5e-07,0.0,0 STARLINK-5081,1 55759U 23028U   23307.18359796 -.00000015  00000-0  65248-5 0  9996,2 55759  70.0012 226.7091 0002575 265.0015  95.0850 14.98331125 38081,6950.189,96.107,573.844,570.265,0.0
55759.0,STARLINK-5081,PAYLOAD,2023-11-03 12:25:03,14.98328521,0.000257,70.0017,225.8659,263.7839,96.3028,-8.6835e-06,-1.97e-06,0.0,0 STARLINK-5081,1 55759U 23028U   23307.51739969 -.00000197  00000-0 -86835-5 0  9994,2 55759  70.0017 225.8659 0002570 263.7839  96.3028 14.98328521 38133,6950.197,96.107,573.849,570.276,0.0
55759.0,STARLINK-5081,PAYLOAD,2023-11-03 22:01:51,14.98327933,0.0002806,70.0008,224.8564,270.8016,89.2822,3.6591e-06,-4.9e-07,0.0,0 STARLINK-5081,1 55759U 23028U   23307.91795937 -.00000049  00000-0  36591-5 0  9994,2 55759  70.0008 224.8564 0002806 270.8016  89.2822 14.98327933 38190,6950.199,96.107,574.015,570.114,0.0
55759.0,STARLINK-5081,PAYLOAD,2023-11-04 04:26:23,14.98334551,0.0002649,70.0014,224.184,271.8075,88.2781,7.2899e-05,7.77e-06,0.0,0 STARLINK-5081,1 55759U 23028U   23308.18499337  .00000777  00000-0  72899-4 0  9996,2 55759  70.0014 224.1840 0002649 271.8075  88.2781 14.98334551 38230,6950.179,96.107,573.885,570.203,0.0
55759.0,STARLINK-5081,PAYLOAD,2023-11-04 12:27:03,14.98342812,0.0002669,70.0013,223.3432,275.3372,84.7482,-2.647e-05,-4.09e-06,0.0,0 STARLINK-5081,1 55759U 23028U   23308.51878886 -.00000409  00000-0 -26470-4 0  9991,2 55759  70.0013 223.3432 0002669 275.3372  84.7482 14.98342812 38281,6950.153,96.106,573.873,570.163,0.0
55759.0,STARLINK-5081,PAYLOAD,2023-11-04 22:03:51,14.98335012,0.0002758,70.0013,222.3336,273.6356,86.4487,0.0001598,1.814e-05,0.0,0 STARLINK-5081,1 55759U 23028U   23308.91934705  .00001814  00000-0  15980-3 0  9990,2 55759  70.0013 222.3336 0002758 273.6356  86.4487 14.98335012 38340,6950.177,96.107,573.959,570.126,0.0
55759.0,STARLINK-5081,PAYLOAD,2023-11-05 04:28:21,14.98359249,0.0002796,70.0011,221.6601,268.6986,91.3853,0.00033853,3.952e-05,0.0,0 STARLINK-5081,1 55759U 23028U   23309.18636419  .00003952  00000-0  33853-3 0  9995,2 55759  70.0011 221.6601 0002796 268.6986  91.3853 14.98359249 38384,6950.102,96.105,573.911,570.024,0.0
55759.0,STARLINK-5081,PAYLOAD,2023-11-05 20:29:43,14.9833772,0.0002746,70.0009,219.9754,270.9938,89.0906,5.6636e-05,5.83e-06,0.0,0 STARLINK-5081,1 55759U 23028U   23309.85398045  .00000583  00000-0  56636-4 0  9991,2 55759  70.0009 219.9754 0002746 270.9938  89.0906 14.98337720 38482,6950.169,96.107,573.943,570.126,0.0
55759.0,STARLINK-5081,PAYLOAD,2023-11-05 22:05:51,14.98339898,0.0002499,70.0019,219.8087,270.0756,90.0117,0.00012392,1.386e-05,0.0,0 STARLINK-5081,1 55759U 23028U   23309.92073733  .00001386  00000-0  12392-3 0  9995,2 55759  70.0019 219.8087 0002499 270.0756  90.0117 14.98339898 38490,6950.162,96.106,573.764,570.29,0.0
55759.0,STARLINK-5081,PAYLOAD,2023-11-06 02:54:13,14.98368366,0.000256,70.0012,219.3043,275.1761,84.9106,0.00033654,3.929e-05,0.0,0 STARLINK-5081,1 55759U 23028U   23310.12099069  .00003929  00000-0  33654-3 0  9998,2 55759  70.0012 219.3043 0002560 275.1761  84.9106 14.98368366 38527,6950.074,96.105,573.718,570.16,0.0
55759.0,STARLINK-5081,PAYLOAD,2023-11-06 04:30:20,14.98374726,0.0002763,70.0009,219.1357,267.3051,92.7792,0.00039478,4.626e-05,0.0,0 STARLINK-5081,1 55759U 23028U   23310.18774249  .00004626  00000-0  39478-3 0  9999,2 55759  70.0009 219.1357 0002763 267.3051  92.7792 14.98374726 38535,6950.055,96.104,573.84,569.999,0.0
55759.0,STARLINK-5081,PAYLOAD,2023-11-06 18:55:37,14.98325771,0.0003089,70.0011,217.6203,260.0931,99.988,-0.0002265,-2.794e-05,0.0,0 STARLINK-5081,1 55759U 23028U   23310.78862440 -.00002794  00000-0 -22650-3 0  9996,2 55759  70.0011 217.6203 0003089 260.0931  99.9880 14.98325771 38623,6950.206,96.107,574.218,569.924,0.0
